{"fetched_at":"2026-04-03T08:55:45Z","count":9961,"tles":[{"name":"RASSVET-3 10","line1":"1 68369U 26061K   26090.65700494  .00065118  32340-6  22598-3 0  9997","line2":"2 68369  82.2971  99.7109 0026776  44.5811 315.7607 15.88648903  1269","category":"Other"}]}